{
  "norad_id": 38551,
  "name": "ECHOSTAR 17",
  "history": [
    {
      "epoch": "2026-03-28T21:07:14.147040Z",
      "apogee_km": 35795.37803479544,
      "perigee_km": 35778.13259383888,
      "latitude_deg": -0.030902902305690053,
      "longitude_deg": -107.08240210215018,
      "height_km": 35778.57604873066,
      "semi_major_axis_km": 42164.89231431716,
      "eccentricity": 0.0002045,
      "inclination_deg": 0.018,
      "raan_deg": 150.4438,
      "arg_perigee_deg": 218.0192,
      "mean_anomaly_deg": 27.5233,
      "mean_motion_rev_day": 1.00271213
    },
    {
      "epoch": "2026-03-29T02:11:42.653760Z",
      "apogee_km": 35795.32130173195,
      "perigee_km": 35778.59862427642,
      "latitude_deg": -0.03056303529997066,
      "longitude_deg": -107.07372855426415,
      "height_km": 35788.275656941834,
      "semi_major_axis_km": 42165.09696300419,
      "eccentricity": 0.0001983,
      "inclination_deg": 0.0184,
      "raan_deg": 152.1289,
      "arg_perigee_deg": 217.7862,
      "mean_anomaly_deg": 102.3958,
      "mean_motion_rev_day": 1.00270483
    },
    {
      "epoch": "2026-03-30T00:30:12.660768Z",
      "apogee_km": 35794.483910180374,
      "perigee_km": 35778.76320085485,
      "latitude_deg": -0.040818606154188995,
      "longitude_deg": -107.07471017778396,
      "height_km": 35784.38518237975,
      "semi_major_axis_km": 42164.76055551762,
      "eccentricity": 0.00018642,
      "inclination_deg": 0.02,
      "raan_deg": 153.1937,
      "arg_perigee_deg": 217.4647,
      "mean_anomaly_deg": 77.1952,
      "mean_motion_rev_day": 1.00271683
    },
    {
      "epoch": "2026-03-30T10:46:16.138560Z",
      "apogee_km": 35794.72576743038,
      "perigee_km": 35779.658408734045,
      "latitude_deg": 0.007222703634019177,
      "longitude_deg": -107.11392681712475,
      "height_km": 35791.859841730446,
      "semi_major_axis_km": 42165.32908808222,
      "eccentricity": 0.00017867,
      "inclination_deg": 0.0047,
      "raan_deg": 103.4098,
      "arg_perigee_deg": 272.1875,
      "mean_anomaly_deg": 226.69,
      "mean_motion_rev_day": 1.00269655
    },
    {
      "epoch": "2026-03-30T14:11:41.437248Z",
      "apogee_km": 35794.66072197039,
      "perigee_km": 35779.03100612234,
      "latitude_deg": 0.03540089400362894,
      "longitude_deg": -107.11997585370274,
      "height_km": 35785.09558131084,
      "semi_major_axis_km": 42164.98286404637,
      "eccentricity": 0.00018534,
      "inclination_deg": 0.0206,
      "raan_deg": 156.8638,
      "arg_perigee_deg": 217.9936,
      "mean_anomaly_deg": 278.9263,
      "mean_motion_rev_day": 1.0027089
    }
  ]
}